satname,norad_id,inclination_deg,eccentricity,mean_motion_rev_per_day,perigee_km,apogee_km,l1,l2
STARLINK-1417,45693,53.0482,0.000615,15.15673212,514.6938029499815,523.1772021281049,1 45693U 20035AN  26136.91149442  .00012154  00000+0  64590-3 0  9998,2 45693  53.0482 104.2934 0006150  70.3006 289.8650 15.15673212329232
STARLINK-1420,45695,53.0467,0.0006605,15.65747219,366.6327583194752,375.54848800967466,1 45695U 20035AQ  26136.76159300  .00047746  00000+0  46545-3 0  9992,2 45695  53.0467  50.6250 0006605  69.0230 291.1491 15.65747219329986
STARLINK-1422,45696,53.157,0.0003526,15.33117906,464.1031242752824,468.92997395811926,1 45696U 20035AR  26136.85809335  .00039876  00000+0  12338-2 0  9990,2 45696  53.1570  92.5007 0003526  80.9123 279.2278 15.33117906329417
STARLINK-1351,45697,53.0447,0.0006214,15.64002625,371.9116313363684,380.30580791672037,1 45697U 20035AS  26136.05747243  .00101179  00000+0  10439-2 0  9998,2 45697  53.0447  54.2531 0006214  76.0121 284.1584 15.64002625329878
STARLINK-1400,45700,53.0443,0.0005005,15.61589477,379.68123953188206,386.44920295534666,1 45700U 20035AV  26136.94096928  .00040256  00000+0  46353-3 0  9991,2 45700  53.0443  52.1990 0005005  40.7223 319.4163 15.61589477329971
STARLINK-1403,45701,53.1553,0.0003046,15.32090585,467.49011566836907,471.66174238473195,1 45701U 20035AW  26136.85606381  .00024566  00000+0  79106-3 0  9990,2 45701  53.1553  79.8973 0003046  92.4489 267.6861 15.32090585329584
STARLINK-1407,45703,53.0282,0.000275,15.70344213,356.0600728056688,359.7649000231977,1 45703U 20035AY  26136.92430878  .00055085  00000+0  44457-3 0  9997,2 45703  53.0282 340.2830 0002750   1.5877 358.5147 15.70344213330989
STARLINK-1411,45706,53.035,0.0001757,15.80351992,328.26594117502464,330.6229853012064,1 45706U 20035BB  26137.00002315  .00206668  00000+0  10504-2 0  9991,2 45706  53.0350   3.3733 0001757 180.6413 312.3301 15.80351992  6004
STARLINK-1423,45710,53.0445,0.0007491,15.66632539,363.4937372909608,373.6016202767132,1 45710U 20035BF  26136.48653176  .00049956  00000+0  46950-3 0  9994,2 45710  53.0445  51.5751 0007491  39.9824 320.1741 15.66632539329930
STARLINK-1433,45711,53.0448,0.0007542,15.66274878,364.48559194128757,374.66384029388064,1 45711U 20035BG  26136.91263347  .00043757  00000+0  41817-3 0  9990,2 45711  53.0448  48.0109 0007542  46.5816 313.5825 15.66274878330023
STARLINK-1434,45712,53.0504,0.0003709,15.32512826,465.77872402946286,470.85742440351714,1 45712U 20035BH  26136.77273450  .00022806  00000+0  72569-3 0  9991,2 45712  53.0504  63.1761 0003709  44.5174 315.6124 15.32512826329816
STARLINK-1465,45731,53.0455,0.0001563,15.60537912,385.04497701880246,387.1594782013526,1 45731U 20038B   26136.68922815  .00040518  00000+0  48590-3 0  9998,2 45731  53.0455 254.1766 0001563 268.9873  91.0960 15.60537912326963
STARLINK-1471,45735,53.0434,0.0002934,15.52384824,407.7737227638381,411.7568638295452,1 45735U 20038F   26136.83195952  .00019379  00000+0  31898-3 0  9997,2 45735  53.0434 174.6393 0002934  60.8140 299.3162 15.52384824328103
STARLINK-1480,45741,53.0492,0.0005077,15.62131624,378.0689192150485,384.93265542429344,1 45741U 20038M   26136.73316946  .00047410  00000+0  53307-3 0  9997,2 45741  53.0492 247.6034 0005077 317.3394  42.7224 15.62131624327072
STARLINK-1500,45744,53.0358,0.0002335,15.38157517,449.96311548614267,453.15258298073513,1 45744U 20038Q   26136.64647710  .00019943  00000+0  53188-3 0  9993,2 45744  53.0358 233.0954 0002335  95.6212 264.5057 15.38157517327266
STARLINK-1504,45746,53.0191,0.000339,15.57556762,392.43460426953334,397.02660850666507,1 45746U 20038S   26136.79297276  .00025526  00000+0  34562-3 0  9998,2 45746  53.0191 172.4726 0003390  38.6158 321.5095 15.57556762328111
STARLINK-1506,45747,53.0745,0.0003662,15.27921454,479.514658337358,484.5390423413455,1 45747U 20038T   26136.72346266  .00006440  00000+0  24568-3 0  9995,2 45747  53.0745 247.2152 0003662 108.9625 251.1770 15.27921454327087
STARLINK-1464,45751,53.0474,0.0002679,15.5254268,407.4868195320196,411.12353104954036,1 45751U 20038X   26136.67336598  .00045712  00000+0  73557-3 0  9998,2 45751  53.0474 239.2941 0002679 330.4652  29.6206 15.52542680327188
STARLINK-1477,45754,53.0498,0.0001163,15.17864824,511.49352466271466,513.0962391184412,1 45754U 20038AA  26136.72862133  .00015479  00000+0  76870-3 0  9994,2 45754  53.0498 262.8648 0001163 174.0031 186.0977 15.17864824326857
STARLINK-1478,45755,53.0457,0.0003134,15.65862342,368.6447104054432,372.87491892887647,1 45755U 20038AB  26136.94851111  .00042365  00000+0  41229-3 0  9997,2 45755  53.0457 224.9000 0003134 355.2171   4.8814 15.65862342327395
STARLINK-1493,45759,53.0479,0.0005718,15.61538285,379.3468491017502,387.079128949199,1 45759U 20038AF  26136.85467112  .00059096  00000+0  67731-3 0  9990,2 45759  53.0479 234.4398 0005718 309.3725  50.6781 15.61538285327253
STARLINK-1494,45760,53.0395,0.0007161,15.93721379,287.1031121379956,296.65590978499404,1 45760U 20038AG  26137.00002315  .00273239  39792-4  74161-3 0  9997,2 45760  53.0395 167.4742 0007161   6.5191 270.9218 15.93721379  6032
STARLINK-1502,45764,53.0491,0.0006657,15.57886231,389.2676055109923,398.2837300368665,1 45764U 20038AL  26136.59900758  .00053922  00000+0  71088-3 0  9997,2 45764  53.0491 238.9091 0006657 280.3286  79.6975 15.57886231327185
STARLINK-1470,45772,53.0443,0.000276,15.33595069,463.20797862274594,466.98544363128804,1 45772U 20038AU  26136.63338852  .00026330  00000+0  80783-3 0  9996,2 45772  53.0443 217.5327 0002760 320.0122  40.0675 15.33595069327480
STARLINK-1482,45773,53.1582,0.0002969,15.35913175,456.17974677158236,460.23916929836287,1 45773U 20038AV  26136.67887767  .00023481  00000+0  67086-3 0  9990,2 45773  53.1582 233.8550 0002969 307.4770  52.5962 15.35913175327272
STARLINK-1496,45780,53.0465,0.0007192,15.59415255,384.4811448357668,394.2154957204548,1 45780U 20038BC  26136.61896373  .00044418  00000+0  55449-3 0  9998,2 45780  53.0465 209.8702 0007192   5.1315 354.9770 15.59415255327572
STARLINK-1513,45786,53.1579,9.84e-05,15.31698957,470.0691745538679,471.41703415840584,1 45786U 20038BJ  26136.65214857  .00000488  00000+0  27475-4 0  9997,2 45786  53.1579 235.1350 0000984  87.7354 272.3760 15.31698957327256
STARLINK-1522,46027,53.0614,0.0002596,15.12150617,527.8493641929244,531.4358833735923,1 46027U 20055A   26136.82467479  .00008470  00000+0  50211-3 0  9996,2 46027  53.0614 178.6425 0002596 347.5703  12.5225 15.12150617319182
STARLINK-1523,46028,53.1598,0.0001193,15.30190182,474.4267759552058,476.06199275351264,1 46028U 20055B   26136.58026220 -.00001238  00000+0 -29689-4 0  9998,2 46028  53.1598 171.3598 0001193  92.3698 267.7439 15.30190182319290
STARLINK-1526,46029,53.1592,0.0001185,15.30208707,474.37695287051065,476.0011911495767,1 46029U 20055C   26136.57392754  .00002937  00000+0  11122-3 0  9993,2 46029  53.1592 171.3982 0001185  89.9664 270.1472 15.30208707319285
STARLINK-1555,46032,53.1602,0.0001394,15.30175674,474.3323360291106,476.24307083642725,1 46032U 20055F   26136.88471728 -.00001560  00000+0 -40573-4 0  9996,2 46032  53.1602 169.9401 0001394  75.0575 285.0580 15.30175674319336
STARLINK-1556,46033,53.1594,0.0001143,15.30193765,474.4503457992532,476.0170263380878,1 46033U 20055G   26136.60659409  .00000234  00000+0  20041-4 0  9994,2 46033  53.1594 171.2418 0001143  91.4464 268.6668 15.30193765319269
STARLINK-1557,46034,53.1592,0.0001137,15.30186799,474.4752548972938,476.03371612109913,1 46034U 20055H   26136.80569899 -.00000416  00000+0 -19197-5 0  9995,2 46034  53.1592 170.3169 0001137  85.9789 274.1342 15.30186799319295
STARLINK-1558,46035,53.161,0.0001016,15.30192016,474.5426053155652,475.93521130013414,1 46035U 20055J   26136.81306714  .00000046  00000+0  13662-4 0  9999,2 46035  53.1610 170.2823 0001016  87.7531 272.3586 15.30192016319327
STARLINK-1560,46036,53.1589,0.0001128,15.30193881,474.460279536931,476.0063998855694,1 46036U 20055K   26136.79937751  .00000878  00000+0  41765-4 0  9996,2 46036  53.1589 170.3542 0001128  85.8388 274.2742 15.30193881319321
STARLINK-1569,46039,53.1605,0.0001379,15.30188602,474.30402006060285,476.19418394753575,1 46039U 20055N   26136.81623165  .00000819  00000+0  39782-4 0  9994,2 46039  53.1605 170.2557 0001379 103.8515 256.2640 15.30188602319310
STARLINK-1582,46043,53.158,0.0001293,15.31705511,469.83800959932523,471.60912494202057,1 46043U 20055S   26136.78991956  .00001161  00000+0  49153-4 0  9995,2 46043  53.1580 170.0249 0001293  93.7004 266.4146 15.31705511319317
STARLINK-1591,46045,53.1577,0.0001263,15.30202454,474.3421647865089,476.0733196683959,1 46045U 20055U   26136.78357076  .00000675  00000+0  34915-4 0  9995,2 46045  53.1577 170.4183 0001263 102.2742 257.8400 15.30202454319299
STARLINK-1524,46047,53.1583,0.0001121,15.31710807,469.9400248105376,471.47553581028296,1 46047U 20055W   26136.95500253  .00000654  00000+0  32824-4 0  9997,2 46047  53.1583 156.5524 0001121  79.6882 280.4246 15.31710807319520
STARLINK-1527,46048,53.1603,0.0001228,15.31709943,469.86931736507995,471.5513942756688,1 46048U 20055X   26136.75457882  .00000114  00000+0  15447-4 0  9998,2 46048  53.1603 157.4678 0001228 123.8188 236.2931 15.31709943319465
STARLINK-1540,46051,53.1592,0.0001219,15.31693258,469.92521229492286,471.5949734061596,1 46051U 20055AA  26137.00002315  .00054528  00000+0  17565-2 0  9997,2 46051  53.1592 156.5304 0001219  87.8402 263.4179 15.31693258  5728
STARLINK-1541,46052,53.1587,0.0002226,15.77260367,336.71166921648637,339.70178544389455,1 46052U 20055AB  26136.93566135  .00109506  00000+0  64899-3 0  9994,2 46052  53.1587 148.3681 0002226  73.0638 287.0627 15.77260367319614
STARLINK-1543,46053,53.1605,0.0001156,15.31701051,469.9451324326519,471.5285920696051,1 46053U 20055AC  26136.77788469  .00000649  00000+0  32672-4 0  9996,2 46053  53.1605 157.3717 0001156  84.9957 275.1176 15.31701051319507
